#aV2007 10 13  0  0   .00000000      96 DD+AD WGS84 FIT  NGA
## 1448 518400.00000000   900.00000000 54386  .0000000000000
+   31     1  2  3  4  5  6  7  8  9 10 11 12 13 14 16 17 18
+         19 20 21 22 23 24 25 26 27 28 29 30 31 32  0  0  0
+          0  0  0  0  0  0  0  0  0  0  0  0  0  0  0  0  0
+          0  0  0  0  0  0  0  0  0  0  0  0  0  0  0  0  0
+          0  0  0  0  0  0  0  0  0  0  0  0  0  0  0  0  0
++         0  0  0  0  0  0  0  0  0  0  0  0  0  0  0  0  0
++         0  0  0  0  0  0  0  0  0  0  0  0  0  0  0  0  0
++         0  0  0  0  0  0  0  0  0  0  0  0  0  0  0  0  0
++         0  0  0  0  0  0  0  0  0  0  0  0  0  0  0  0  0
++         0  0  0  0  0  0  0  0  0  0  0  0  0  0  0  0  0
%c cc cc ccc ccc cccc cccc cccc cccc ccccc ccccc ccccc ccccc
%c cc cc ccc ccc cccc cccc cccc cccc ccccc ccccc ccccc ccccc
%f  0.0000000  0.000000000  0.00000000000  0.000000000000000
%f  0.0000000  0.000000000  0.00000000000  0.000000000000000
%i    0    0    0    0      0      0      0      0         0
%i    0    0    0    0      0      0      0      0         0
/*      NGA, ST. LOUIS,MO.                                  
/*   EPHEMERIS COMPUTED FROM  3 DAYS OF DATA                
/* CCCCCCCCCCCCCCCCCCCCCCCCCCCCCCCCCCCCCCCCCCCCCCCCCCCCCCCCC
/* CCCCCCCCCCCCCCCCCCCCCCCCCCCCCCCCCCCCCCCCCCCCCCCCCCCCCCCCC
*  2007 10 13 14 15   .00000000                                                 
P  1  17286.849332 -20098.977182   -294.295192    159.158242                    
V  1   1055.019473   1725.224374 -32465.640353       .029104                    
P  2 -10261.954354  13460.768521  20204.995319    143.357533                    
V  2 -25876.736762  -4392.393112 -10426.424170       .027667                    
P  3   8739.435178 -24015.647278  -6769.141681    129.022733                    
V  3   7774.508649  -5123.023934  29558.945697       .054613                    
P  4 -21759.968015   6998.738678  13750.680854    -13.504761                    
V  4 -16990.550715  -4730.849547 -23987.202861      -.035628                    
P  5  16204.240411  19873.460679   6944.743343    465.938639                    
V  5   1427.259812   9588.807164 -29517.915162       .288520                    
P  6  15691.586123   4785.667865  21075.473404    236.971721                    
V  6 -14645.275011  22025.228959   5925.990265      -.052122                    
P  7  16765.926801   2479.050550  20796.412238    -53.942853                    
V  7 -13491.322531  21933.108893   8361.566272       .154716                    
P  8 -25843.276972    333.212483  -7209.119785   -126.317148                    
V  8  -8447.522386  -3214.609575  30137.403635      -.015062                    
P  9  12724.133868  14322.507038 -19087.593984     91.909368                    
V  9 -22887.615653   -962.358808 -16335.875576       .017152                    
P 10  -1351.101724  22504.951181  13663.487893   -106.271974                    
V 10  -8559.945405 -15618.302927  24981.188975      -.138289                    
P 11 -15633.105555 -13124.672308 -17264.727451     24.830347                    
V 11  21686.963440  -3625.912408 -16685.163014       .004777                    
P 12  11909.432860  23644.921624   2641.862589   -344.712854                    
V 12  -1239.024748   4030.578015 -31503.414807      -.013002                    
P 13 -15007.929864  -3721.109574  21487.148045    213.530866                    
V 13  17126.835410 -21448.578646   8230.733369       .027932                    
P 14  20019.703086 -13087.808278 -11346.170280   -327.036599                    
V 14  -7726.020299  12447.022400 -27854.917985       .024424                    
P 16   5405.733678 -19211.960049  17515.159124    119.381031                    
V 16   9818.550078  19933.560790  19070.275000       .020557                    
P 17 -20178.359550  11742.935512 -12514.452023     51.851120                    
V 17   7860.324941 -14117.691188 -26020.507487      -.010496                    
P 18  17151.968267  10406.947818 -17412.468003   -231.471454                    
V 18   6221.954057  21514.479948  18461.415075       .020031                    
P 19   2506.100298 -20525.950876 -16493.045646       .970881                    
V 19  15430.210173 -14650.005809  20608.699690       .022532                    
P 20 -13800.147967 -22043.227288   5391.437676    127.969413                    
V 20       .985056  -7609.871772 -30498.554753      -.006158                    
P 21  25919.143723   6443.285250   3195.883930     77.598781                    
V 21  -4239.699604   2342.904337  30526.551418      -.003255                    
P 22  14687.734876  -4679.620161 -21466.840137    200.418426                    
V 22   9444.306983  26029.265919    738.830203       .008704                    
P 23  -7391.558709 -14115.103992  21136.933121    299.490751                    
V 23  17003.065925 -21014.018791  -8285.019380       .036169                    
P 24  19069.549665  12904.192965  13174.565566     37.962301                    
V 24 -16728.971689   -426.319037  25287.659672       .029394                    
P 25 -23474.950861  -7674.259650   9928.098691    460.603727                    
V 25  12208.925702  -2143.376338  28394.449421       .076945                    
P 26  -4762.108563  21304.121604 -15174.251732     60.341747                    
V 26 -13043.132332  13393.877878  24139.431575       .128576                    
P 27 -26181.858446  -4178.359932   3557.113040    141.014089                    
V 27   3836.102476  -2148.327633  31319.782353       .024766                    
P 28 -15603.177552    638.832657 -21182.445258     -8.532690                    
V 28  -9671.796246 -25916.297818   5901.550549      -.005633                    
P 29  -8539.931976  22520.144670 -10532.340847      6.011718                    
V 29  -9976.354359   9701.501545  28688.507111       .002003                    
P 30  17213.872488  15746.485701  12460.943366     48.846178                    
V 30   4455.992113  15948.185141 -25529.872112       .013165                    
P 31  19173.406225  -9008.090727  16264.634049      6.224989                    
V 31  19887.002856   4167.164279 -21326.659154      -.013236                    
P 32   8498.790657 -15932.491637 -19055.111071     98.479274                    
V 32   8916.078420  23527.644154 -15185.955738       .150788                    
EOF
